NORAD_CAT_ID,OBJECT_NAME,OBJECT_TYPE,EPOCH,MEAN_MOTION,ECCENTRICITY,INCLINATION,RA_OF_ASC_NODE,ARG_OF_PERICENTER,MEAN_ANOMALY,BSTAR,MEAN_MOTION_DOT,MEAN_MOTION_DDOT,TLE_LINE0,TLE_LINE1,TLE_LINE2,SEMIMAJOR_AXIS,PERIOD,APOGEE,PERIGEE,DECAYED
53998.0,STARLINK-5128,PAYLOAD,2023-10-14 10:59:59,15.0884257,0.0001321,53.2168,191.9371,87.7013,272.413,-3.937e-06,-3.51e-06,0.0,0 STARLINK-5128,1 53998U 22125AL  23287.45832823 -.00000351  00000-0 -39370-5 0  9991,2 53998  53.2168 191.9371 0001321  87.7013 272.4130 15.08842570 57039,6917.873,95.437,540.651,538.824,0.0
53998.0,STARLINK-5128,PAYLOAD,2023-10-14 22:07:42,15.08828573,0.0001348,53.2171,189.8569,90.5794,269.5352,-4.2544e-05,-9.65e-06,0.0,0 STARLINK-5128,1 53998U 22125AL  23287.92202492 -.00000965  00000-0 -42544-4 0  9993,2 53998  53.2171 189.8569 0001348  90.5794 269.5352 15.08828573 57103,6917.915,95.438,540.713,538.848,0.0
53998.0,STARLINK-5128,PAYLOAD,2023-10-15 02:53:51,15.08837184,0.0001434,53.2152,188.9633,87.5069,272.6087,-4.7443e-05,-1.043e-05,0.0,0 STARLINK-5128,1 53998U 22125AL  23288.12073441 -.00001043  00000-0 -47443-4 0  9997,2 53998  53.2152 188.9633 0001434  87.5069 272.6087 15.08837184 57200,6917.889,95.438,540.746,538.762,0.0
53998.0,STARLINK-5128,PAYLOAD,2023-10-15 10:50:47,15.08834479,0.0001351,53.2161,187.4757,93.3969,266.7178,-0.0001408,-2.528e-05,0.0,0 STARLINK-5128,1 53998U 22125AL  23288.45193667 -.00002528  00000-0 -14080-3 0  9995,2 53998  53.2161 187.4757 0001351  93.3969 266.7178 15.08834479 57189,6917.897,95.438,540.697,538.828,0.0
53998.0,STARLINK-5128,PAYLOAD,2023-10-15 21:58:29,15.08837348,0.0001436,53.2161,185.3947,85.1132,275.0024,0.00011721,1.578e-05,0.0,0 STARLINK-5128,1 53998U 22125AL  23288.91561916  .00001578  00000-0  11721-3 0  9993,2 53998  53.2161 185.3947 0001436  85.1132 275.0024 15.08837348 57251,6917.888,95.438,540.747,538.76,0.0
53998.0,STARLINK-5128,PAYLOAD,2023-10-16 02:44:38,15.0884865,0.0001437,53.2163,184.5009,93.0141,267.1015,0.00012007,1.624e-05,0.0,0 STARLINK-5128,1 53998U 22125AL  23289.11433232  .00001624  00000-0  12007-3 0  9995,2 53998  53.2163 184.5009 0001437  93.0141 267.1015 15.08848650 57353,6917.854,95.437,540.713,538.725,0.0
53998.0,STARLINK-5128,PAYLOAD,2023-10-17 23:15:26,15.08848259,0.0001429,53.2165,176.176,92.4583,267.6572,5.0776e-05,5.2e-06,0.0,0 STARLINK-5128,1 53998U 22125AL  23290.96905158  .00000520  00000-0  50776-4 0  9991,2 53998  53.2165 176.1760 0001429  92.4583 267.6572 15.08848259 57639,6917.855,95.437,540.709,538.732,0.0
53998.0,STARLINK-5128,PAYLOAD,2023-10-18 23:06:13,15.08838668,0.0001399,53.2161,171.7157,90.107,270.0082,8.596e-06,-1.51e-06,0.0,0 STARLINK-5128,1 53998U 22125AL  23291.96265501 -.00000151  00000-0  85960-5 0  9998,2 53998  53.2161 171.7157 0001399  90.1070 270.0082 15.08838668 57714,6917.884,95.438,540.717,538.782,0.0
53998.0,STARLINK-5128,PAYLOAD,2023-10-19 03:52:21,15.08816168,0.0001437,53.216,170.8242,90.7541,269.3616,0.00059596,9.203e-05,0.0,0 STARLINK-5128,1 53998U 22125AL  23292.16135602  .00009203  00000-0  59596-3 0  9999,2 53998  53.2160 170.8242 0001437  90.7541 269.3616 15.08816168 57816,6917.953,95.439,540.812,538.824,0.0
53998.0,STARLINK-5128,PAYLOAD,2023-10-19 13:24:41,15.08836191,0.0001343,53.2165,169.0389,99.3884,260.726,7.4087e-05,8.91e-06,0.0,0 STARLINK-5128,1 53998U 22125AL  23292.55881465  .00000891  00000-0  74087-4 0  9994,2 53998  53.2165 169.0389 0001343  99.3884 260.7260 15.08836191 57801,6917.892,95.438,540.686,538.828,0.0
53998.0,STARLINK-5128,PAYLOAD,2023-10-19 22:56:59,15.08846609,0.0001268,53.2163,167.2564,93.6989,266.4148,0.0001831,2.628e-05,0.0,0 STARLINK-5128,1 53998U 22125AL  23292.95624682  .00002628  00000-0  18310-3 0  9990,2 53998  53.2163 167.2564 0001268  93.6989 266.4148 15.08846609 57862,6917.86,95.437,540.602,538.848,0.0
53998.0,STARLINK-5128,PAYLOAD,2023-10-20 11:40:05,15.08831937,0.0001289,53.2148,164.8771,99.875,260.2388,-0.00027559,-4.67e-05,0.0,0 STARLINK-5128,1 53998U 22125AL  23293.48617374 -.00004670  00000-0 -27559-3 0  9995,2 53998  53.2148 164.8771 0001289  99.8750 260.2388 15.08831937 58019,6917.905,95.438,540.662,538.878,0.0
53998.0,STARLINK-5128,PAYLOAD,2023-10-20 14:50:51,15.08826017,0.0001351,53.2148,164.2822,95.4955,264.6192,-0.00032188,-5.405e-05,0.0,0 STARLINK-5128,1 53998U 22125AL  23293.61865699 -.00005405  00000-0 -32188-3 0  9996,2 53998  53.2148 164.2822 0001351  95.4955 264.6192 15.08826017 57966,6917.923,95.438,540.723,538.854,0.0
53998.0,STARLINK-5128,PAYLOAD,2023-10-20 22:47:47,15.08832034,0.000134,53.2151,162.7959,92.7982,267.3164,-0.0001577,-2.796e-05,0.0,0 STARLINK-5128,1 53998U 22125AL  23293.94985940 -.00002796  00000-0 -15770-3 0  9992,2 53998  53.2151 162.7959 0001340  92.7982 267.3164 15.08832034 58014,6917.905,95.438,540.697,538.843,0.0
53998.0,STARLINK-5128,PAYLOAD,2023-10-21 08:20:06,15.08841745,0.0001387,53.2153,161.0112,90.8498,269.2653,7.9668e-05,9.8e-06,0.0,0 STARLINK-5128,1 53998U 22125AL  23294.34729669  .00000980  00000-0  79668-4 0  9999,2 53998  53.2153 161.0112 0001387  90.8498 269.2653 15.08841745 58148,6917.875,95.437,540.7,538.781,0.0
53998.0,STARLINK-5128,PAYLOAD,2023-10-21 21:03:11,15.08860335,0.0001377,53.2149,158.6328,87.1964,272.9186,0.00070812,0.00011006,0.0,0 STARLINK-5128,1 53998U 22125AL  23294.87721160  .00011006  00000-0  70812-3 0  9997,2 53998  53.2149 158.6328 0001377  87.1964 272.9186 15.08860335 58227,6917.818,95.436,540.636,538.731,0.0
53998.0,STARLINK-5128,PAYLOAD,2023-10-21 22:38:34,15.08871691,0.0001415,53.2145,158.3353,87.0671,273.0483,0.0013577,0.00021405,0.0,0 STARLINK-5128,1 53998U 22125AL  23294.94345161  .00021405  00000-0  13577-2 0  9996,2 53998  53.2145 158.3353 0001415  87.0671 273.0483 15.08871691 58167,6917.784,95.436,540.627,538.67,0.0
53998.0,STARLINK-5128,PAYLOAD,2023-10-22 08:10:52,15.08852942,0.000165,53.2147,156.5512,98.8903,261.2276,0.00016045,2.267e-05,0.0,0 STARLINK-5128,1 53998U 22125AL  23295.34089115  .00002267  00000-0  16045-3 0  9994,2 53998  53.2147 156.5512 0001650  98.8903 261.2276 15.08852942 58296,6917.841,95.437,540.847,538.564,0.0
53998.0,STARLINK-5128,PAYLOAD,2023-10-22 20:53:58,15.08818127,0.000149,53.2147,154.1733,103.1809,256.9349,0.0010933,0.00017144,0.0,0 STARLINK-5128,1 53998U 22125AL  23295.87082163  .00017144  00000-0  10933-2 0  9997,2 53998  53.2147 154.1733 0001490 103.1809 256.9349 15.08818127 58370,6917.947,95.439,540.843,538.781,0.0
53998.0,STARLINK-5128,PAYLOAD,2023-10-23 20:44:46,15.08840381,0.0001519,53.2149,149.7115,104.8027,255.3133,0.00098134,0.00015365,0.0,0 STARLINK-5128,1 53998U 22125AL  23296.86443040  .00015365  00000-0  98134-3 0  9995,2 53998  53.2149 149.7115 0001519 104.8027 255.3133 15.08840381 58526,6917.879,95.438,540.795,538.693,0.0
53998.0,STARLINK-5128,PAYLOAD,2023-10-24 14:14:01,15.08850644,0.0001506,53.2148,146.44,104.0269,256.089,0.0006347,9.831e-05,0.0,0 STARLINK-5128,1 53998U 22125AL  23297.59306789  .00009831  00000-0  63470-3 0  9990,2 53998  53.2148 146.4400 0001506 104.0269 256.0890 15.08850644 58567,6917.848,95.437,540.755,538.671,0.0
53998.0,STARLINK-5128,PAYLOAD,2023-10-25 14:04:47,15.08847268,0.0001781,53.2144,141.9799,101.1017,259.0175,0.00014428,2.009e-05,0.0,0 STARLINK-5128,1 53998U 22125AL  23298.58666355  .00002009  00000-0  14428-3 0  9997,2 53998  53.2144 141.9799 0001781 101.1017 259.0175 15.08847268 58789,6917.858,95.437,540.955,538.491,0.0
53998.0,STARLINK-5128,PAYLOAD,2023-10-26 12:20:11,15.08841952,0.0001488,53.2147,137.8161,99.4754,260.6406,1.5342e-06,-2.64e-06,0.0,0 STARLINK-5128,1 53998U 22125AL  23299.51402214 -.00000264  00000-0  15342-5 0  9993,2 53998  53.2147 137.8161 0001488  99.4754 260.6406 15.08841952 58925,6917.874,95.437,540.769,538.71,0.0
53998.0,STARLINK-5128,PAYLOAD,2023-10-26 21:52:29,15.08849302,0.0001413,53.215,136.0321,99.4612,260.654,0.00012209,1.656e-05,0.0,0 STARLINK-5128,1 53998U 22125AL  23299.91145830  .00001656  00000-0  12209-3 0  9997,2 53998  53.2150 136.0321 0001413  99.4612 260.6540 15.08849302 58914,6917.852,95.437,540.694,538.739,0.0
53998.0,STARLINK-5128,PAYLOAD,2023-10-26 23:27:53,15.08850646,0.0001434,53.215,135.7348,98.8277,261.2878,0.00013768,1.905e-05,0.0,0 STARLINK-5128,1 53998U 22125AL  23299.97769746  .00001905  00000-0  13768-3 0  9999,2 53998  53.2150 135.7348 0001434  98.8277 261.2878 15.08850646 58994,6917.848,95.437,540.705,538.721,0.0
53998.0,STARLINK-5128,PAYLOAD,2023-10-27 12:10:58,15.08840195,0.0001376,53.2146,133.3558,96.7306,263.3843,5.0033e-05,5.08e-06,0.0,0 STARLINK-5128,1 53998U 22125AL  23300.50762106  .00000508  00000-0  50033-4 0  9999,2 53998  53.2146 133.3558 0001376  96.7306 263.3843 15.08840195 59074,6917.88,95.438,540.697,538.793,0.0
53998.0,STARLINK-5128,PAYLOAD,2023-10-27 20:07:54,15.08842564,0.0001381,53.2147,131.8687,93.7254,266.3896,8.549e-05,1.073e-05,0.0,0 STARLINK-5128,1 53998U 22125AL  23300.83882022  .00001073  00000-0  85490-4 0  9998,2 53998  53.2147 131.8687 0001381  93.7254 266.3896 15.08842564 59057,6917.873,95.437,540.693,538.782,0.0
53998.0,STARLINK-5128,PAYLOAD,2023-10-28 05:40:12,15.08839696,0.0001377,53.2147,130.0845,93.8241,266.2909,4.937e-06,-2.09e-06,0.0,0 STARLINK-5128,1 53998U 22125AL  23301.23626133 -.00000209  00000-0  49370-5 0  9991,2 53998  53.2147 130.0845 0001377  93.8241 266.2909 15.08839696 59119,6917.881,95.438,540.699,538.794,0.0
53998.0,STARLINK-5128,PAYLOAD,2023-10-28 19:58:41,15.08841256,0.0001388,53.2145,127.4085,89.0511,271.064,5.7416e-05,6.26e-06,0.0,0 STARLINK-5128,1 53998U 22125AL  23301.83242182  .00000626  00000-0  57416-4 0  9996,2 53998  53.2145 127.4085 0001388  89.0511 271.0640 15.08841256 59270,6917.877,95.437,540.702,538.781,0.0
53998.0,STARLINK-5128,PAYLOAD,2023-10-29 11:52:32,15.08842071,0.0001548,53.2143,124.4337,87.1661,272.9508,0.00011675,1.571e-05,0.0,0 STARLINK-5128,1 53998U 22125AL  23302.49482237  .00001571  00000-0  11675-3 0  9992,2 53998  53.2143 124.4337 0001548  87.1661 272.9508 15.08842071 59301,6917.874,95.437,540.81,538.668,0.0
